{
"type": "FeatureCollection",
"name": "washington_earthquakes_clean",
"crs": { "type": "name", "properties": { "name": "urn:ogc:def:crs:OGC:1.3:CRS84" } },
"features": [
{ "type": "Feature", "properties": { "event_datetime": "2022-03-16T02:49:16.080Z", "latitude": 37.6846667, "longitude": -113.1838333, "depth_km": 1.56, "magnitude": 1.05, "location_desc": "10 km W of Cedar City, Utah", "event_month": 3, "event_year": 2022, "danger_level": "Minimal", "hazard_type": "earthquake" }, "geometry": { "type": "Point", "coordinates": [ -113.1838333, 37.6846667 ] } },
{ "type": "Feature", "properties": { "event_datetime": "2022-03-22T10:07:17.180Z", "latitude": 37.4263333, "longitude": -112.9508333, "depth_km": 2.73, "magnitude": 1.22, "location_desc": "24 km ESE of Kanarraville, Utah", "event_month": 3, "event_year": 2022, "danger_level": "Minimal", "hazard_type": "earthquake" }, "geometry": { "type": "Point", "coordinates": [ -112.9508333, 37.4263333 ] } },
{ "type": "Feature", "properties": { "event_datetime": "2022-03-24T11:42:07.860Z", "latitude": 37.4196667, "longitude": -113.8558333, "depth_km": 0.26, "magnitude": 1.6, "location_desc": "17 km WNW of Veyo, Utah", "event_month": 3, "event_year": 2022, "danger_level": "Minimal", "hazard_type": "earthquake" }, "geometry": { "type": "Point", "coordinates": [ -113.8558333, 37.4196667 ] } },
{ "type": "Feature", "properties": { "event_datetime": "2022-05-09T11:10:18.221Z", "latitude": 37.168, "longitude": -113.9055, "depth_km": 4.6, "magnitude": 0.2, "location_desc": "Utah", "event_month": 5, "event_year": 2022, "danger_level": "Minimal", "hazard_type": "earthquake" }, "geometry": { "type": "Point", "coordinates": [ -113.9055, 37.168 ] } },
{ "type": "Feature", "properties": { "event_datetime": "2022-05-09T10:03:24.932Z", "latitude": 37.4091, "longitude": -113.8648, "depth_km": 3.8, "magnitude": 0.6, "location_desc": "17 km WNW of Veyo, Utah", "event_month": 5, "event_year": 2022, "danger_level": "Minimal", "hazard_type": "earthquake" }, "geometry": { "type": "Point", "coordinates": [ -113.8648, 37.4091 ] } },
{ "type": "Feature", "properties": { "event_datetime": "2022-05-11T04:06:30.160Z", "latitude": 37.3413333, "longitude": -114.0908333, "depth_km": 9.46, "magnitude": 1.22, "location_desc": "35 km W of Veyo, Utah", "event_month": 5, "event_year": 2022, "danger_level": "Minimal", "hazard_type": "earthquake" }, "geometry": { "type": "Point", "coordinates": [ -114.0908333, 37.3413333 ] } },
{ "type": "Feature", "properties": { "event_datetime": "2022-05-16T16:45:36.364Z", "latitude": 37.4693, "longitude": -113.8373, "depth_km": 3.9, "magnitude": 0.6, "location_desc": "15 km SW of Enterprise, Utah", "event_month": 5, "event_year": 2022, "danger_level": "Minimal", "hazard_type": "earthquake" }, "geometry": { "type": "Point", "coordinates": [ -113.8373, 37.4693 ] } },
{ "type": "Feature", "properties": { "event_datetime": "2022-05-17T12:08:38.060Z", "latitude": 37.6105, "longitude": -113.0678333, "depth_km": 10.21, "magnitude": 1.12, "location_desc": "7 km S of Cedar City, Utah", "event_month": 5, "event_year": 2022, "danger_level": "Minimal", "hazard_type": "earthquake" }, "geometry": { "type": "Point", "coordinates": [ -113.0678333, 37.6105 ] } },
{ "type": "Feature", "properties": { "event_datetime": "2022-05-17T12:08:13.230Z", "latitude": 37.6078333, "longitude": -113.0641667, "depth_km": 9.93, "magnitude": 0.8, "location_desc": "7 km S of Cedar City, Utah", "event_month": 5, "event_year": 2022, "danger_level": "Minimal", "hazard_type": "earthquake" }, "geometry": { "type": "Point", "coordinates": [ -113.0641667, 37.6078333 ] } },
{ "type": "Feature", "properties": { "event_datetime": "2022-05-23T02:50:43.660Z", "latitude": 37.4663333, "longitude": -113.8518333, "depth_km": 10.08, "magnitude": 1.95, "location_desc": "16 km SW of Enterprise, Utah", "event_month": 5, "event_year": 2022, "danger_level": "Minimal", "hazard_type": "earthquake" }, "geometry": { "type": "Point", "coordinates": [ -113.8518333, 37.4663333 ] } },
{ "type": "Feature", "properties": { "event_datetime": "2022-05-23T02:56:56.020Z", "latitude": 37.4865, "longitude": -113.8823333, "depth_km": 1.52, "magnitude": 1.12, "location_desc": "17 km SW of Enterprise, Utah", "event_month": 5, "event_year": 2022, "danger_level": "Minimal", "hazard_type": "earthquake" }, "geometry": { "type": "Point", "coordinates": [ -113.8823333, 37.4865 ] } },
{ "type": "Feature", "properties": { "event_datetime": "2022-05-22T22:34:11.630Z", "latitude": 37.0996667, "longitude": -112.9101667, "depth_km": 5.93, "magnitude": 1.02, "location_desc": "11 km NNE of Hildale, Utah", "event_month": 5, "event_year": 2022, "danger_level": "Minimal", "hazard_type": "earthquake" }, "geometry": { "type": "Point", "coordinates": [ -112.9101667, 37.0996667 ] } },
{ "type": "Feature", "properties": { "event_datetime": "2022-06-08T06:56:49.500Z", "latitude": 37.5586667, "longitude": -113.0533333, "depth_km": 12.62, "magnitude": 1.92, "location_desc": "11 km E of Kanarraville, Utah", "event_month": 6, "event_year": 2022, "danger_level": "Minimal", "hazard_type": "earthquake" }, "geometry": { "type": "Point", "coordinates": [ -113.0533333, 37.5586667 ] } },
{ "type": "Feature", "properties": { "event_datetime": "2022-06-08T15:10:30.822Z", "latitude": 37.4215, "longitude": -113.77, "depth_km": 4.3, "magnitude": 0.1, "location_desc": "11 km NW of Veyo, Utah", "event_month": 6, "event_year": 2022, "danger_level": "Minimal", "hazard_type": "earthquake" }, "geometry": { "type": "Point", "coordinates": [ -113.77, 37.4215 ] } },
{ "type": "Feature", "properties": { "event_datetime": "2022-06-21T01:15:16.071Z", "latitude": 37.4706, "longitude": -113.9035, "depth_km": 10.4, "magnitude": 0.5, "location_desc": "19 km SW of Enterprise, Utah", "event_month": 6, "event_year": 2022, "danger_level": "Minimal", "hazard_type": "earthquake" }, "geometry": { "type": "Point", "coordinates": [ -113.9035, 37.4706 ] } },
{ "type": "Feature", "properties": { "event_datetime": "2022-06-23T16:47:59.100Z", "latitude": 37.4958333, "longitude": -113.4846667, "depth_km": 0.34, "magnitude": 1.15, "location_desc": "11 km NNE of Pine Valley, Utah", "event_month": 6, "event_year": 2022, "danger_level": "Minimal", "hazard_type": "earthquake" }, "geometry": { "type": "Point", "coordinates": [ -113.4846667, 37.4958333 ] } },
{ "type": "Feature", "properties": { "event_datetime": "2022-07-01T17:33:02.740Z", "latitude": 37.262, "longitude": -113.3873333, "depth_km": 1.65, "magnitude": 1.5, "location_desc": "3 km NW of Leeds, Utah", "event_month": 7, "event_year": 2022, "danger_level": "Minimal", "hazard_type": "earthquake" }, "geometry": { "type": "Point", "coordinates": [ -113.3873333, 37.262 ] } },
{ "type": "Feature", "properties": { "event_datetime": "2022-07-08T21:59:22.490Z", "latitude": 37.0481667, "longitude": -113.348, "depth_km": 3.36, "magnitude": 1.4, "location_desc": "15 km SSW of Hurricane, Utah", "event_month": 7, "event_year": 2022, "danger_level": "Minimal", "hazard_type": "earthquake" }, "geometry": { "type": "Point", "coordinates": [ -113.348, 37.0481667 ] } },
{ "type": "Feature", "properties": { "event_datetime": "2022-07-13T01:26:53.590Z", "latitude": 37.4058333, "longitude": -113.8225, "depth_km": 9.6, "magnitude": 1.52, "location_desc": "13 km WNW of Veyo, Utah", "event_month": 7, "event_year": 2022, "danger_level": "Minimal", "hazard_type": "earthquake" }, "geometry": { "type": "Point", "coordinates": [ -113.8225, 37.4058333 ] } },
{ "type": "Feature", "properties": { "event_datetime": "2022-07-14T12:57:57.520Z", "latitude": 37.0788333, "longitude": -113.7971667, "depth_km": 2.66, "magnitude": 1.66, "location_desc": "14 km WSW of Santa Clara, Utah", "event_month": 7, "event_year": 2022, "danger_level": "Minimal", "hazard_type": "earthquake" }, "geometry": { "type": "Point", "coordinates": [ -113.7971667, 37.0788333 ] } },
{ "type": "Feature", "properties": { "event_datetime": "2022-07-15T10:21:27.390Z", "latitude": 37.5908333, "longitude": -113.3095, "depth_km": 8.11, "magnitude": 1.15, "location_desc": "12 km N of New Harmony, Utah", "event_month": 7, "event_year": 2022, "danger_level": "Minimal", "hazard_type": "earthquake" }, "geometry": { "type": "Point", "coordinates": [ -113.3095, 37.5908333 ] } },
{ "type": "Feature", "properties": { "event_datetime": "2022-07-15T09:47:06.520Z", "latitude": 37.5978333, "longitude": -113.3133333, "depth_km": 8.34, "magnitude": 1.0, "location_desc": "13 km N of New Harmony, Utah", "event_month": 7, "event_year": 2022, "danger_level": "Minimal", "hazard_type": "earthquake" }, "geometry": { "type": "Point", "coordinates": [ -113.3133333, 37.5978333 ] } },
{ "type": "Feature", "properties": { "event_datetime": "2022-07-20T10:44:37.830Z", "latitude": 37.5306667, "longitude": -113.3763333, "depth_km": 9.17, "magnitude": 0.88, "location_desc": "8 km NW of New Harmony, Utah", "event_month": 7, "event_year": 2022, "danger_level": "Minimal", "hazard_type": "earthquake" }, "geometry": { "type": "Point", "coordinates": [ -113.3763333, 37.5306667 ] } },
{ "type": "Feature", "properties": { "event_datetime": "2022-08-02T09:58:14.540Z", "latitude": 37.3007, "longitude": -113.8473, "depth_km": 6.7, "magnitude": 0.2, "location_desc": "14 km WSW of Veyo, Utah", "event_month": 8, "event_year": 2022, "danger_level": "Minimal", "hazard_type": "earthquake" }, "geometry": { "type": "Point", "coordinates": [ -113.8473, 37.3007 ] } },
{ "type": "Feature", "properties": { "event_datetime": "2022-08-03T08:20:53.140Z", "latitude": 37.6636667, "longitude": -113.1056667, "depth_km": 9.82, "magnitude": 1.28, "location_desc": "4 km WSW of Cedar City, Utah", "event_month": 8, "event_year": 2022, "danger_level": "Minimal", "hazard_type": "earthquake" }, "geometry": { "type": "Point", "coordinates": [ -113.1056667, 37.6636667 ] } },
{ "type": "Feature", "properties": { "event_datetime": "2022-08-03T22:48:04.060Z", "latitude": 37.5295, "longitude": -114.0655, "depth_km": 10.13, "magnitude": 1.79, "location_desc": "30 km W of Enterprise, Utah", "event_month": 8, "event_year": 2022, "danger_level": "Minimal", "hazard_type": "earthquake" }, "geometry": { "type": "Point", "coordinates": [ -114.0655, 37.5295 ] } },
{ "type": "Feature", "properties": { "event_datetime": "2022-08-11T18:53:44.930Z", "latitude": 37.5638333, "longitude": -113.067, "depth_km": 13.65, "magnitude": 1.87, "location_desc": "10 km ENE of Kanarraville, Utah", "event_month": 8, "event_year": 2022, "danger_level": "Minimal", "hazard_type": "earthquake" }, "geometry": { "type": "Point", "coordinates": [ -113.067, 37.5638333 ] } },
{ "type": "Feature", "properties": { "event_datetime": "2022-08-11T18:48:18.590Z", "latitude": 37.5615, "longitude": -113.0613333, "depth_km": 12.16, "magnitude": 1.42, "location_desc": "11 km ENE of Kanarraville, Utah", "event_month": 8, "event_year": 2022, "danger_level": "Minimal", "hazard_type": "earthquake" }, "geometry": { "type": "Point", "coordinates": [ -113.0613333, 37.5615 ] } },
{ "type": "Feature", "properties": { "event_datetime": "2022-08-16T23:29:36.500Z", "latitude": 37.2423333, "longitude": -113.247, "depth_km": 17.87, "magnitude": 0.79, "location_desc": "Utah", "event_month": 8, "event_year": 2022, "danger_level": "Minimal", "hazard_type": "earthquake" }, "geometry": { "type": "Point", "coordinates": [ -113.247, 37.2423333 ] } },
{ "type": "Feature", "properties": { "event_datetime": "2022-08-29T10:56:09.327Z", "latitude": 37.6861, "longitude": -113.9897, "depth_km": 16.5, "magnitude": 0.3, "location_desc": "26 km WNW of Enterprise, Utah", "event_month": 8, "event_year": 2022, "danger_level": "Minimal", "hazard_type": "earthquake" }, "geometry": { "type": "Point", "coordinates": [ -113.9897, 37.6861 ] } },
{ "type": "Feature", "properties": { "event_datetime": "2022-08-31T00:29:07.880Z", "latitude": 37.3623, "longitude": -114.0451, "depth_km": 11.5, "magnitude": 0.6, "location_desc": "31 km W of Veyo, Utah", "event_month": 8, "event_year": 2022, "danger_level": "Minimal", "hazard_type": "earthquake" }, "geometry": { "type": "Point", "coordinates": [ -114.0451, 37.3623 ] } },
{ "type": "Feature", "properties": { "event_datetime": "2022-08-31T23:00:31.640Z", "latitude": 37.6368333, "longitude": -113.185, "depth_km": 3.42, "magnitude": 0.88, "location_desc": "10 km N of Kanarraville, Utah", "event_month": 8, "event_year": 2022, "danger_level": "Minimal", "hazard_type": "earthquake" }, "geometry": { "type": "Point", "coordinates": [ -113.185, 37.6368333 ] } },
{ "type": "Feature", "properties": { "event_datetime": "2022-10-18T08:25:39.390Z", "latitude": 37.689, "longitude": -113.172, "depth_km": 7.62, "magnitude": 1.35, "location_desc": "9 km W of Cedar City, Utah", "event_month": 10, "event_year": 2022, "danger_level": "Minimal", "hazard_type": "earthquake" }, "geometry": { "type": "Point", "coordinates": [ -113.172, 37.689 ] } },
{ "type": "Feature", "properties": { "event_datetime": "2022-11-23T20:58:48.500Z", "latitude": 37.4851667, "longitude": -113.837, "depth_km": 6.42, "magnitude": 2.24, "location_desc": "14 km SW of Enterprise, Utah", "event_month": 11, "event_year": 2022, "danger_level": "Minimal", "hazard_type": "earthquake" }, "geometry": { "type": "Point", "coordinates": [ -113.837, 37.4851667 ] } },
{ "type": "Feature", "properties": { "event_datetime": "2022-12-02T19:25:51.692Z", "latitude": 37.4533, "longitude": -113.7178, "depth_km": 0.0, "magnitude": -0.1, "location_desc": "9 km WNW of Central, Utah", "event_month": 12, "event_year": 2022, "danger_level": "Minimal", "hazard_type": "earthquake" }, "geometry": { "type": "Point", "coordinates": [ -113.7178, 37.4533 ] } }
]
}
